STARLINK-5595           
1 55765U 23028AA  26068.85293301  .00000280  00000+0  31282-4 0  9995
2 55765  69.9996 224.2008 0003169 270.0112  90.0684 14.98334738166558
HAWK-9A                 
1 59446U 24066E   26068.43100697  .00002638  00000+0  23459-3 0  9992
2 59446  45.6088  72.7153 0003627 244.6286 115.4219 14.98777479104861
